GLOBALSTAR M067         
1 32263U 07048A   24178.90670479 -.00000084  00000+0  10080-3 0  9993
2 32263  51.9745 355.4929 0000469  21.3294 133.1253 12.40647973765386
GLOBALSTAR M070         
1 32264U 07048B   24178.06052366 -.00000091  00000+0  71866-4 0  9998
2 32264  51.9734 133.3884 0000708  36.0210  43.7347 12.62294714768697
GLOBALSTAR M066         
1 32265U 07048C   24178.20062885 -.00000092  00000+0  67527-4 0  9992
2 32265  51.9695 354.9292 0000983 112.2628  58.9777 12.62264221770972
GLOBALSTAR M068         
1 32266U 07048D   24177.66899075 -.00000079  00000+0  13622-3 0  9992
2 32266  51.9901 309.0163 0001551  94.3733   9.2455 12.62792037772515
GLOBALSTAR M079         
1 37188U 10054A   24178.15500524 -.00000096  00000+0  42634-4 0  9999
2 37188  52.0019 143.6033 0000158 327.5590  45.8197 12.62271209631490
GLOBALSTAR M074         
1 37189U 10054B   24178.18158781 -.00000108  00000+0 -24513-4 0  9998
2 37189  51.9995 142.9015 0000324  26.4857 346.8258 12.62269754632103
GLOBALSTAR M076         
1 37190U 10054C   24178.22774925 -.00000112  00000+0 -45248-4 0  9992
2 37190  52.0009 142.8982 0000512 331.3925 132.7968 12.62262253631823
GLOBALSTAR M077         
1 37191U 10054D   24178.92348701 -.00000079  00000+0  13586-3 0  9999
2 37191  52.0077  97.5342 0000657  43.1801  43.9443 12.62274078632286
